ONEWEB-0645             
1 55809U 23029P   25168.86568883  .00000002  00000+0 -26772-4 0  9997
2 55809  87.9220  17.4193 0001804  97.7144 262.4194 13.19725190110858
ONEWEB-0646             
1 55810U 23029Q   25168.81988413  .00000054  00000+0  10214-3 0  9998
2 55810  87.9219  17.4221 0002087  89.9423 270.1949 13.19726869110833
ONEWEB-0648             
1 55811U 23029R   25168.81266225 -.00000037  00000+0 -13444-3 0  9990
2 55811  87.9033   2.2042 0002275 114.1640 245.9728 13.14501821111528
ONEWEB-0649             
1 55812U 23029S   25168.85857338  .00000001  00000+0 -30353-4 0  9995
2 55812  87.9220  17.4033 0002034 100.6579 259.4782 13.19727101110872
ONEWEB-0650             
1 55813U 23029T   25168.85383453 -.00000146  00000+0 -39720-3 0  9995
2 55813  87.9220  17.4137 0001988  90.9318 269.2043 13.19725253110849
ONEWEB-0652             
1 55814U 23029U   25168.56528125 -.00000193  00000+0 -55519-3 0  9997
2 55814  87.9036   2.2634 0001732  83.7027 276.4300 13.14502732111468
ONEWEB-0653             
1 55815U 23029V   25168.77776967  .00000082  00000+0  18608-3 0  9993
2 55815  87.9038   2.2108 0001609  88.3295 271.8019 13.14501387111526
ONEWEB-0654             
1 55816U 23029W   25168.54465967  .00000074  00000+0  16483-3 0  9994
2 55816  87.9037   2.2575 0001576  76.8016 283.3289 13.14501470111519
